{
    "links": {
        "self": "http://www.neowsapp.com/rest/v1/neo/3649827?api_key=iIulBulltgU6a56xZRHN4H3l9WmuAYTsLGpBGhQ2"
    },
    "id": "3649827",
    "neo_reference_id": "3649827",
    "name": "(2013 TH69)",
    "designation": "2013 TH69",
    "nasa_jpl_url": "http://ssd.jpl.nasa.gov/sbdb.cgi?sstr=3649827",
    "absolute_magnitude_h": 24.2,
    "estimated_diameter": {
        "kilometers": {
            "estimated_diameter_min": 0.0384197891,
            "estimated_diameter_max": 0.0859092601
        },
        "meters": {
            "estimated_diameter_min": 38.4197891064,
            "estimated_diameter_max": 85.9092601232
        },
        "miles": {
            "estimated_diameter_min": 0.0238729428,
            "estimated_diameter_max": 0.0533815229
        },
        "feet": {
            "estimated_diameter_min": 126.0491808919,
            "estimated_diameter_max": 281.8545369825
        }
    },
    "is_potentially_hazardous_asteroid": false,
    "close_approach_data": [
        {
            "close_approach_date": "2013-10-11",
            "close_approach_date_full": "2013-Oct-11 19:43",
            "epoch_date_close_approach": 1381520580000,
            "relative_velocity": {
                "kilometers_per_second": "6.3033511546",
                "kilometers_per_hour": "22692.0641564198",
                "miles_per_hour": "14099.9661976376"
            },
            "miss_distance": {
                "astronomical": "0.0923573662",
                "lunar": "35.9270154518",
                "kilometers": "13816465.262329994",
                "miles": "8585153.4151581572"
            },
            "orbiting_body": "Earth"
        }
    ],
    "orbital_data": {
        "orbit_id": "12",
        "orbit_determination_date": "2017-04-06 08:44:15",
        "first_observation_date": "2013-10-06",
        "last_observation_date": "2013-10-17",
        "data_arc_in_days": 11,
        "observations_used": 54,
        "orbit_uncertainty": "8",
        "minimum_orbit_intersection": ".0882117",
        "jupiter_tisserand_invariant": "3.248",
        "epoch_osculation": "2456575.5",
        "eccentricity": ".5625584910216911",
        "semi_major_axis": "2.464919792084934",
        "inclination": "2.306061675974269",
        "ascending_node_longitude": "336.5076287952128",
        "orbital_period": "1413.522138824475",
        "perihelion_distance": "1.078258233360133",
        "perihelion_argument": "51.46013128690373",
        "aphelion_distance": "3.851581350809735",
        "perihelion_time": "2456584.679038572545",
        "mean_anomaly": "357.6622553015941",
        "mean_motion": ".254682958343607",
        "equinox": "J2000",
        "orbit_class": {
            "orbit_class_type": "AMO",
            "orbit_class_description": "Near-Earth asteroid orbits similar to that of 1221 Amor",
            "orbit_class_range": "1.017 AU < q (perihelion) < 1.3 AU"
        }
    },
    "is_sentry_object": false
}